[{"OBJECT_NAME":"ION SCV-004","OBJECT_ID":"2022-002K","EPOCH":"2026-03-09T16:32:03.244416","MEAN_MOTION":15.29369331,"ECCENTRICITY":0.00072157,"INCLINATION":97.2961,"RA_OF_ASC_NODE":128.2294,"ARG_OF_PERICENTER":1.6783,"MEAN_ANOMALY":358.448,"EPHEMERIS_TYPE":0,"CLASSIFICATION_TYPE":"U","NORAD_CAT_ID":50993,"ELEMENT_SET_NO":999,"REV_AT_EPOCH":23008,"BSTAR":0.00023198467,"MEAN_MOTION_DOT":6.538e-5,"MEAN_MOTION_DDOT":0},{"OBJECT_NAME":"STARLINK-32560","OBJECT_ID":"2024-210Z","EPOCH":"2026-03-09T15:06:24.643296","MEAN_MOTION":15.27631693,"ECCENTRICITY":0.0003359,"INCLINATION":43.0062,"RA_OF_ASC_NODE":179.9209,"ARG_OF_PERICENTER":300.7869,"MEAN_ANOMALY":59.2652,"EPHEMERIS_TYPE":0,"CLASSIFICATION_TYPE":"U","NORAD_CAT_ID":61982,"ELEMENT_SET_NO":999,"REV_AT_EPOCH":7487,"BSTAR":0.0010189,"MEAN_MOTION_DOT":0.0002793,"MEAN_MOTION_DDOT":0}]
